NORAD_CAT_ID,OBJECT_NAME,OBJECT_TYPE,EPOCH,MEAN_MOTION,ECCENTRICITY,INCLINATION,RA_OF_ASC_NODE,ARG_OF_PERICENTER,MEAN_ANOMALY,BSTAR,MEAN_MOTION_DOT,MEAN_MOTION_DDOT,TLE_LINE0,TLE_LINE1,TLE_LINE2,SEMIMAJOR_AXIS,PERIOD,APOGEE,PERIGEE,DECAYED
56767.0,STARLINK-6197,PAYLOAD,2024-04-21 21:58:03,14.98330236,0.0002794,69.9986,296.1117,263.4101,96.674,-4.1248e-05,-5.85e-06,0.0,0 STARLINK-6197,1 56767U 23078A   24112.91532136 -.00000585  00000-0 -41248-4 0  9994,2 56767  69.9986 296.1117 0002794 263.4101  96.6740 14.98330236 49314,6950.192,96.107,573.999,570.115,0.0
56767.0,STARLINK-6197,PAYLOAD,2024-04-22 10:47:08,14.9832917,0.000283,69.9986,294.7644,265.5864,94.4972,-2.0832e-05,-3.42e-06,0.0,0 STARLINK-6197,1 56767U 23078A   24113.44940152 -.00000342  00000-0 -20832-4 0  9991,2 56767  69.9986 294.7644 0002830 265.5864  94.4972 14.98329170 49658,6950.195,96.107,574.027,570.094,0.0
56767.0,STARLINK-6197,PAYLOAD,2024-04-22 22:00:04,14.98330551,0.0002756,69.9988,293.5861,264.0908,95.9937,1.086e-05,3.7e-07,0.0,0 STARLINK-6197,1 56767U 23078A   24113.91672017  .00000037  00000-0  10860-4 0  9994,2 56767  69.9988 293.5861 0002756 264.0908  95.9937 14.98330551 49469,6950.191,96.107,573.972,570.141,0.0
56767.0,STARLINK-6197,PAYLOAD,2024-04-23 12:25:17,14.98327024,0.0002727,69.9989,292.0713,261.6008,98.4842,4.5419e-05,4.49e-06,0.0,0 STARLINK-6197,1 56767U 23078A   24114.51756224  .00000449  00000-0  45419-4 0  9999,2 56767  69.9989 292.0713 0002727 261.6008  98.4842 14.98327024 49815,6950.202,96.107,573.962,570.172,0.0
56767.0,STARLINK-6197,PAYLOAD,2024-04-23 14:01:25,14.98327724,0.0002699,69.999,291.9026,260.6364,99.4489,5.4637e-05,5.59e-06,0.0,0 STARLINK-6197,1 56767U 23078A   24114.58432151  .00000559  00000-0  54637-4 0  9990,2 56767  69.9990 291.9026 0002699 260.6364  99.4489 14.98327724 49561,6950.2,96.107,573.941,570.189,0.0
56767.0,STARLINK-6197,PAYLOAD,2024-04-23 22:02:05,14.98335794,0.0002407,69.9999,291.0613,257.8153,102.2736,-3.3151e-05,-4.88e-06,0.0,0 STARLINK-6197,1 56767U 23078A   24114.91811894 -.00000488  00000-0 -33151-4 0  9993,2 56767  69.9999 291.0613 0002407 257.8153 102.2736 14.98335794 49614,6950.175,96.107,573.713,570.367,0.0
56767.0,STARLINK-6197,PAYLOAD,2024-04-24 12:27:17,14.9833769,0.0002765,69.9993,289.546,267.6493,92.4349,0.00015013,1.699e-05,0.0,0 STARLINK-6197,1 56767U 23078A   24115.51895104  .00001699  00000-0  15013-3 0  9995,2 56767  69.9993 289.5460 0002765 267.6493  92.4349 14.98337690 49968,6950.169,96.107,573.956,570.112,0.0
56767.0,STARLINK-6197,PAYLOAD,2024-04-24 14:03:25,14.98359163,0.0002831,69.9993,289.3778,267.125,92.9585,-0.00018801,-2.337e-05,0.0,0 STARLINK-6197,1 56767U 23078A   24115.58570719 -.00002337  00000-0 -18801-3 0  9994,2 56767  69.9993 289.3778 0002831 267.1250  92.9585 14.98359163 49717,6950.103,96.105,573.935,570.0,0.0
56767.0,STARLINK-6197,PAYLOAD,2024-04-24 22:04:05,14.98341847,0.0002606,69.9999,288.5362,261.6067,98.4797,0.00018768,2.148e-05,0.0,0 STARLINK-6197,1 56767U 23078A   24115.91950489  .00002148  00000-0  18768-3 0  9997,2 56767  69.9999 288.5362 0002606 261.6067  98.4797 14.98341847 49769,6950.156,96.106,573.832,570.21,0.0
56767.0,STARLINK-6197,PAYLOAD,2024-04-25 12:29:19,14.98321806,0.000299,69.9998,287.0218,268.648,91.4336,-0.00012508,-1.585e-05,0.0,0 STARLINK-6197,1 56767U 23078A   24116.52036557 -.00001585  00000-0 -12508-3 0  9998,2 56767  69.9998 287.0218 0002990 268.6480  91.4336 14.98321806 50110,6950.218,96.108,574.161,570.005,0.0
56767.0,STARLINK-6197,PAYLOAD,2024-04-25 14:05:27,14.98320742,0.0003235,69.9992,286.8535,271.235,88.8438,-0.00015771,-1.974e-05,0.0,0 STARLINK-6197,1 56767U 23078A   24116.58712731 -.00001974  00000-0 -15771-3 0  9996,2 56767  69.9992 286.8535 0003235 271.2350  88.8438 14.98320742 49863,6950.222,96.108,574.335,569.838,0.0
56767.0,STARLINK-6197,PAYLOAD,2024-04-25 20:29:59,14.98322346,0.0003005,69.9993,286.1798,266.5428,93.5387,-0.00012516,-1.586e-05,0.0,0 STARLINK-6197,1 56767U 23078A   24116.85416652 -.00001586  00000-0 -12516-3 0  9992,2 56767  69.9993 286.1798 0003005 266.5428  93.5387 14.98322346 49909,6950.217,96.107,574.17,569.993,0.0
56767.0,STARLINK-6197,PAYLOAD,2024-04-26 12:31:20,14.98331859,0.0003144,69.9989,284.4951,269.1744,90.9054,-0.00011851,-1.507e-05,0.0,0 STARLINK-6197,1 56767U 23078A   24117.52176123 -.00001507  00000-0 -11851-3 0  9997,2 56767  69.9989 284.4951 0003144 269.1744  90.9054 14.98331859 50262,6950.187,96.107,574.237,569.867,0.0
56767.0,STARLINK-6197,PAYLOAD,2024-04-26 14:07:28,14.98333084,0.0003179,69.9991,284.327,270.0298,90.0496,-0.00010788,-1.38e-05,0.0,0 STARLINK-6197,1 56767U 23078A   24117.58852015 -.00001380  00000-0 -10788-3 0  9991,2 56767  69.9991 284.3270 0003179 270.0298  90.0496 14.98333084 50017,6950.183,96.107,574.258,569.839,0.0
56767.0,STARLINK-6197,PAYLOAD,2024-04-26 17:19:43,14.98338187,0.0003145,69.9989,283.9901,269.1333,90.9466,-6.4951e-05,-8.68e-06,0.0,0 STARLINK-6197,1 56767U 23078A   24117.72203530 -.00000868  00000-0 -64951-4 0  9991,2 56767  69.9989 283.9901 0003145 269.1333  90.9466 14.98338187 50297,6950.168,96.106,574.218,569.847,0.0
56767.0,STARLINK-6197,PAYLOAD,2024-04-26 18:55:51,14.98340139,0.0003096,69.9989,283.8217,270.0972,89.9832,-2.7475e-05,-4.21e-06,0.0,0 STARLINK-6197,1 56767U 23078A   24117.78879301 -.00000421  00000-0 -27475-4 0  9997,2 56767  69.9989 283.8217 0003096 270.0972  89.9832 14.98340139 50049,6950.162,96.106,574.178,569.875,0.0
56767.0,STARLINK-6197,PAYLOAD,2024-04-27 12:33:20,14.98321969,0.00027,69.9997,281.969,259.1369,100.9486,0.00014848,1.679e-05,0.0,0 STARLINK-6197,1 56767U 23078A   24118.52315905  .00001679  00000-0  14848-3 0  9998,2 56767  69.9997 281.9690 0002700 259.1369 100.9486 14.98321969 50411,6950.218,96.108,573.959,570.206,0.0
56767.0,STARLINK-6197,PAYLOAD,2024-04-27 14:09:29,14.98324914,0.000281,69.9994,281.8007,265.4398,94.6441,0.00010185,1.122e-05,0.0,0 STARLINK-6197,1 56767U 23078A   24118.58991914  .00001122  00000-0  10185-3 0  9997,2 56767  69.9994 281.8007 0002810 265.4398  94.6441 14.98324914 50168,6950.209,96.107,574.027,570.121,0.0
56767.0,STARLINK-6197,PAYLOAD,2024-04-27 20:34:01,14.98325152,0.0002632,69.9994,281.1268,255.7707,104.316,0.00016029,1.82e-05,0.0,0 STARLINK-6197,1 56767U 23078A   24118.85695791  .00001820  00000-0  16029-3 0  9999,2 56767  69.9994 281.1268 0002632 255.7707 104.3160 14.98325152 50205,6950.208,96.107,573.902,570.244,0.0
56767.0,STARLINK-6197,PAYLOAD,2024-04-28 12:35:21,14.98334935,0.0003068,69.9985,279.4437,268.5161,91.5647,2.2773e-06,-6.6e-07,0.0,0 STARLINK-6197,1 56767U 23078A   24119.52455600 -.00000066  00000-0  22773-5 0  9994,2 56767  69.9985 279.4437 0003068 268.5161  91.5647 14.98334935 50568,6950.178,96.107,574.175,569.91,0.0
56767.0,STARLINK-6197,PAYLOAD,2024-04-28 14:11:29,14.98335054,0.0003075,69.9985,279.2754,268.5107,91.57,4.5202e-06,-3.9e-07,0.0,0 STARLINK-6197,1 56767U 23078A   24119.59131562 -.00000039  00000-0  45202-5 0  9991,2 56767  69.9985 279.2754 0003075 268.5107  91.5700 14.98335054 50312,6950.177,96.107,574.179,569.905,0.0
56767.0,STARLINK-6197,PAYLOAD,2024-04-28 20:36:01,14.98340613,0.0002932,69.9988,278.6018,266.039,94.0434,9.3729e-05,1.026e-05,0.0,0 STARLINK-6197,1 56767U 23078A   24119.85834829  .00001026  00000-0  93729-4 0  9998,2 56767  69.9988 278.6018 0002932 266.0390  94.0434 14.98340613 50611,6950.16,96.106,574.063,569.987,0.0
56767.0,STARLINK-6197,PAYLOAD,2024-04-29 12:37:23,14.98323489,0.0002775,69.9996,276.9198,270.4198,89.6643,-6.9665e-05,-9.24e-06,0.0,0 STARLINK-6197,1 56767U 23078A   24120.52596353 -.00000924  00000-0 -69665-4 0  9991,2 56767  69.9996 276.9198 0002775 270.4198  89.6643 14.98323489 50715,6950.213,96.107,574.007,570.149,0.0
56767.0,STARLINK-6197,PAYLOAD,2024-04-29 14:13:31,14.98323062,0.0002775,69.9996,276.7514,270.3994,89.6847,-6.7323e-05,-8.96e-06,0.0,0 STARLINK-6197,1 56767U 23078A   24120.59272391 -.00000896  00000-0 -67323-4 0  9998,2 56767  69.9996 276.7514 0002775 270.3994  89.6847 14.98323062 50463,6950.214,96.107,574.008,570.151,0.0
56767.0,STARLINK-6197,PAYLOAD,2024-04-29 20:38:03,14.9832471,0.0002844,69.9996,276.0782,271.0916,88.9917,-7.3209e-05,-9.66e-06,0.0,0 STARLINK-6197,1 56767U 23078A   24120.85976383 -.00000966  00000-0 -73209-4 0  9997,2 56767  69.9996 276.0782 0002844 271.0916  88.9917 14.98324710 50508,6950.209,96.107,574.051,570.098,0.0
56767.0,STARLINK-6197,PAYLOAD,2024-04-30 03:02:35,14.98334132,0.0002917,69.9997,275.405,271.0293,89.0531,-0.00015106,-1.895e-05,0.0,0 STARLINK-6197,1 56767U 23078A   24121.12679988 -.00001895  00000-0 -15106-3 0  9992,2 56767  69.9997 275.4050 0002917 271.0293  89.0531 14.98334132 50805,6950.18,96.107,574.072,570.018,0.0
56767.0,STARLINK-6197,PAYLOAD,2024-04-30 14:15:31,14.98334032,0.0002835,69.9996,274.2268,273.2882,86.7953,-2.5733e-05,-4e-06,0.0,0 STARLINK-6197,1 56767U 23078A   24121.59411730 -.00000400  00000-0 -25733-4 0  9991,2 56767  69.9996 274.2268 0002835 273.2882  86.7953 14.98334032 50619,6950.18,96.107,574.016,570.075,0.0
56767.0,STARLINK-6197,PAYLOAD,2024-04-30 20:40:03,14.98334707,0.0002862,69.9997,273.5534,273.6938,86.3893,-2.8241e-05,-4.3e-06,0.0,0 STARLINK-6197,1 56767U 23078A   24121.86115646 -.00000430  00000-0 -28241-4 0  9998,2 56767  69.9997 273.5534 0002862 273.6938  86.3893 14.98334707 50656,6950.178,96.107,574.032,570.054,0.0
56767.0,STARLINK-6197,PAYLOAD,2024-05-01 09:29:08,14.98325456,0.000296,69.9996,272.207,269.084,90.998,6.4941e-05,6.82e-06,0.0,0 STARLINK-6197,1 56767U 23078A   24122.39523933  .00000682  00000-0  64941-4 0  9993,2 56767  69.9996 272.2070 0002960 269.0840  90.9980 14.98325456 50992,6950.207,96.107,574.129,570.015,0.0
56767.0,STARLINK-6197,PAYLOAD,2024-05-02 12:43:25,14.98328774,0.0002896,69.9999,269.3458,271.4519,88.6308,-1.4607e-05,-2.67e-06,0.0,0 STARLINK-6197,1 56767U 23078A   24123.53016114 -.00000267  00000-0 -14607-4 0  9993,2 56767  69.9999 269.3458 0002896 271.4519  88.6308 14.98328774 51164,6950.197,96.107,574.074,570.049,0.0
